FLOCK 3P-50             
1 42029U 17008CK  17158.94234793  .00002028  00000-0  90586-4 0  9990
2 42029  97.4973 220.3521 0006792 237.5811 122.4768 15.22499431 16304
FLOCK 3P-52             
1 42030U 17008CL  17158.94404620  .00002089  00000-0  93223-4 0  9998
2 42030  97.4969 220.3453 0006848 236.1623 123.8962 15.22493753 17070
FLOCK 3P-46             
1 42031U 17008CM  17158.94063265  .00001609  00000-0  72459-4 0  9990
2 42031  97.4966 220.3474 0006736 237.8526 122.2057 15.22531220 17134
FLOCK 3P-47             
1 42032U 17008CN  17158.74325508  .00001075  00000-0  49433-4 0  9993
2 42032  97.4967 220.1511 0006720 239.1504 120.9072 15.22510134 16929
FLOCK 3P-44             
1 42033U 17008CP  17158.93575396  .00001876  00000-0  83906-4 0  9999
2 42033  97.4969 220.3553 0006569 241.0195 119.0383 15.22546794 15709
FLOCK 3P-64             
1 42034U 17008CQ  17158.93544028  .00004120  00000-0  18056-3 0  9996
2 42034  97.4966 220.3508 0006508 240.4980 119.5608 15.22555303 17124
FLOCK 3P-63             
1 42035U 17008CR  17158.93472050  .00003397  00000-0  14940-3 0  9995
2 42035  97.4964 220.3499 0006530 240.8105 119.2478 15.22562306 15097
FLOCK 3P-62             
1 42036U 17008CS  17158.93066913  .00002353  00000-0  10411-3 0  9993
2 42036  97.4966 220.3572 0006501 242.0641 117.9938 15.22671984 16291
FLOCK 3P-38             
1 42037U 17008CT  17158.93237378  .00002385  00000-0  10583-3 0  9994
2 42037  97.4964 220.3529 0006211 241.7306 118.3303 15.22558550 17075
FLOCK 3P-39             
1 42038U 17008CU  17158.93145428  .00001648  00000-0  74002-4 0  9997
2 42038  97.4961 220.3505 0006442 242.2373 117.8210 15.22599043 17021
FLOCK 3P-15             
1 42039U 17008CV  17158.93335000  .00001888  00000-0  84495-4 0  9998
2 42039  97.4965 220.3520 0006339 241.5543 118.5055 15.22527619 16304
FLOCK 3P-13             
1 42040U 17008CW  17158.92980964  .00001177  00000-0  53718-4 0  9999
2 42040  97.4966 220.3581 0006244 242.3670 117.6933 15.22592160 16295
FLOCK 3P 55             
1 42041U 17008CX  17158.91809872  .00002309  00000-0  10189-3 0  9999
2 42041  97.4965 220.3715 0005911 247.2725 112.7887 15.22779245 17138
FLOCK 3P-56             
1 42042U 17008CY  17158.91949385  .00002165  00000-0  95773-4 0  9997
2 42042  97.4962 220.3644 0005989 245.6011 114.4601 15.22761659 16921
FLOCK 3P-81             
1 42043U 17008CZ  17158.88773131  .00002377  00000-0  10566-3 0  9999
2 42043  97.4989 220.3042 0007238 221.6006 138.4680 15.22492832 16309
FLOCK 3P-87             
1 42044U 17008DA  17158.63229325  .00003699  00000-0  16298-3 0  9990
2 42044  97.4985 220.0275 0007485 218.7456 141.3244 15.22433334 16414
FLOCK 3P-29             
1 42045U 17008DB  17158.89627812  .00004132  00000-0  18165-3 0  9990
2 42045  97.4968 220.2577 0007256 214.5422 145.5344 15.22441863 16307
FLOCK 3P-82             
1 42046U 17008DC  17158.89678531  .00004105  00000-0  18081-3 0  9992
2 42046  97.4987 220.2907 0007589 218.3739 141.6958 15.22379227 16355
FLOCK 3P-78             
1 42047U 17008DD  17158.89449980  .00003389  00000-0  14951-3 0  9992
2 42047  97.4988 220.2943 0007473 217.8009 142.2703 15.22446989 16280
FLOCK 3P-74             
1 42048U 17008DE  17158.89897260  .00003877  00000-0  17091-3 0  9991
2 42048  97.4990 220.2922 0007731 218.9244 141.1436 15.22383944 16283
FLOCK 3P-31             
1 42049U 17008DF  17158.89900289  .00004094  00000-0  18037-3 0  9991
2 42049  97.4969 220.2558 0007377 215.5397 144.5348 15.22372272 15744
FLOCK 3P-83             
1 42050U 17008DG  17158.89863058  .00003929  00000-0  17338-3 0  9994
2 42050  97.4987 220.2876 0007633 219.2873 140.7810 15.22335387 17014
FLOCK 3P-72             
1 42051U 17008DH  17158.82183358  .00001057  00000-0  48650-4 0  9998
2 42051  97.4992 220.2427 0007127 218.2235 141.8497 15.22540172 14595
LEMUR-2-REDFERN-GOES    
1 42059U 98067LA  17158.89665075  .00009067  00000-0  12600-3 0  9992
2 42059  51.6401  83.0576 0006970 260.8302  99.1902 15.57794793 14564
TECHEDSAT 5             
1 42066U 98067LB  17158.89723804  .00121594  00000-0  85603-3 0  9998
2 42066  51.6339  78.5270 0002496 169.5988 190.5063 15.73220190 14350
LEMUR-2-TRUTNA          
1 42067U 98067LC  17158.79962149  .00023183  00000-0  29553-3 0  9992
2 42067  51.6398  83.1591 0006202 256.8821 103.1479 15.59180998 14388
LEMUR-2-AUSTINTACIOUS   
1 42068U 98067LD  17158.89519361  .00013575  00000-0  18369-3 0  9995
2 42068  51.6400  83.0466 0006272 260.4317  99.5967 15.58022862 14497
LEMUR-2-TRUTNAHD        
1 42069U 98067LE  17158.89524569  .00010121  00000-0  13915-3 0  9998
2 42069  51.6408  83.0502 0006299 257.5625 102.4662 15.57936004 14548
SOMP2                   
1 42700U 98067LH  17158.88648691  .00009430  00000-0  14246-3 0  9991
2 42700  51.6405  84.4843 0005718 293.6867  66.3524 15.55462122  3494
HAVELSAT                
1 42701U 98067LJ  17158.88676222  .00008823  00000-0  13396-3 0  9993
2 42701  51.6408  84.4863 0005702 294.0943  65.9452 15.55417222  3488
COLUMBIA                
1 42702U 98067LK  17158.88410154  .00019214  00000-0  27842-3 0  9991
2 42702  51.6403  84.4684 0005602 287.2660  72.7718 15.55869851  3417
SGSAT                   
1 42703U 98067LL  17158.88620700  .00015801  00000-0  23221-3 0  9997
2 42703  51.6403  84.4832 0001766 220.8717 139.2142 15.55653025  3409
CXBN-2                  
1 42704U 98067LM  17158.82469391  .00009811  00000-0  14890-3 0  9995
2 42704  51.6405  84.8218 0001544 221.4009 138.6865 15.55286031  3403
ICECUBE                 
1 42705U 98067LN  17158.82523167  .00012552  00000-0  18868-3 0  9993
2 42705  51.6408  84.8261 0001517 228.7987 131.2874 15.55255002  3469
PHOENIX                 
1 42706U 98067LP  17158.88716306  .00010132  00000-0  15266-3 0  9990
2 42706  51.6407  84.4901 0000616 268.8838  91.2082 15.55440974  3409
X-CUBESAT               
1 42707U 98067LQ  17158.88740278  .00009984  00000-0  15060-3 0  9991
2 42707  51.6405  84.4911 0000731 263.6903  96.4005 15.55429487  3399
QBEE50-LTU-OC           
1 42708U 98067LR  17158.88776308  .00009575  00000-0  14491-3 0  9998
2 42708  51.6406  84.4935 0000820 263.5714  96.5184 15.55395360  3352
ALTAIR PATHFINDER       
1 42711U 98067LS  17158.89322845  .00006503  00000-0  10240-3 0  9992
2 42711  51.6405  84.5287 0004053 218.6166 141.4535 15.54931960  3069
SHARC                   
1 42712U 98067LT  17158.89172724  .00006842  00000-0  10696-3 0  9993
2 42712  51.6408  84.5196 0002002 217.1999 142.8854 15.55036188  3307
ZA-AEROSAT              
1 42713U 98067LU  17158.89048807  .00008270  00000-0  12704-3 0  9997
2 42713  51.6406  84.5115 0001889 203.2076 156.8830 15.55198542  3066
LINK                    
1 42714U 98067LV  17158.89078497  .00008987  00000-0  13737-3 0  9998
2 42714  51.6405  84.5134 0002102 211.0779 149.0088 15.55210295  3174
CSUNSAT 1               
1 42715U 98067LW  17158.89237646  .00008483  00000-0  13073-3 0  9996
2 42715  51.6404  84.5237 0004198 207.4035 152.6735 15.55068495  3069
UPSAT                   
1 42716U 98067LX  17158.95319376  .00010900  00000-0  16395-3 0  9992
2 42716  51.6405  84.1805 0004014 299.4021  60.6569 15.55398712  3208
SPACECUBE               
1 42717U 98067LY  17158.88977019  .00009304  00000-0  14154-3 0  9996
2 42717  51.6406  84.5067 0004012 297.9695  62.0890 15.55292929  2432
HOOPOE                  
1 42718U 98067LZ  17158.88958099  .00010380  00000-0  15683-3 0  9998
2 42718  51.6406  84.5055 0004010 296.9047  63.1534 15.55334999  2439
UNSW-ECO                
1 42721U 98067MA  17158.83161727  .00013452  00000-0  20250-3 0  9990
2 42721  51.6405  84.8672 0007119 271.8868  88.1308 15.55126663  2125
NJUST-1                 
1 42722U 98067MB  17158.63964781  .00008405  00000-0  13013-3 0  9991
2 42722  51.6406  85.8352 0007023 272.4510  87.5677 15.54946491  2094
CHALLENGER              
1 42723U 98067MC  17158.83230951  .00010480  00000-0  16014-3 0  9999
2 42723  51.6406  84.8717 0006919 272.4409  87.5790 15.55000544  2108
DUTHSAT                 
1 42724U 98067MD  17158.76827118  .00013194  00000-0  19957-3 0  9993
2 42724  51.6406  85.1942 0006053 274.7863  85.2437 15.55021851  2018
LILACSAT-1              
1 42725U 98067ME  17158.76882626  .00008870  00000-0  13721-3 0  9997
2 42725  51.6408  85.1980 0006024 276.2416  83.7888 15.54892302  2011
NSIGHT-1                
1 42726U 98067MF  17158.76926877  .00006068  00000-0  96468-4 0  9992
2 42726  51.6408  85.2010 0006001 277.7446  82.2864 15.54804294  2023
SNUSAT-1                
1 42727U 98067MG  17158.76925459  .00009540  00000-0  14704-3 0  9998
2 42727  51.6401  85.2000 0007561 232.0234 128.0075 15.54882391  1988
QBITO                   
1 42728U 98067MH  17158.76823844  .00009821  00000-0  15066-3 0  9998
2 42728  51.6408  85.1943 0003091 287.1186  72.9467 15.54987210  1823
AALTO-2                 
1 42729U 98067MJ  17158.76820493  .00009872  00000-0  15137-3 0  9991
2 42729  51.6407  85.1942 0003072 287.2192  72.8463 15.54993680  1833
SUSAT                   
1 42730U 98067MK  17158.76850572  .00010428  00000-0  15971-3 0  9999
2 42730  51.6407  85.1964 0003124 285.5500  74.5146 15.54955346  1824
I-INSPIRE II            
1 42731U 98067ML  17158.76817449  .00009800  00000-0  15006-3 0  9997
2 42731  51.6400  85.1928 0007154 217.3649 142.6845 15.55029653  1874
POLYITAN-2-SAU          
1 42732U 98067MM  17158.76812296  .00009906  00000-0  15153-3 0  9993
2 42732  51.6399  85.1928 0007078 217.5173 142.5325 15.55041366  1878
SNUSAT-1B               
1 42733U 98067MN  17158.76853139  .00009413  00000-0  14469-3 0  9997
2 42733  51.6401  85.1952 0007030 218.5590 141.4899 15.54978419  1873
EXALTA-1                
1 42734U 98067MP  17158.76821478  .00009425  00000-0  14450-3 0  9992
2 42734  51.6402  85.1933 0008606 244.8204 115.1895 15.55037280  1820
